HIMAWARI-8              
1 40267U 14060A   24262.97795875 -.00000285  00000+0  00000+0 0  9997
2 40267   0.0244 198.2843 0000873 355.4047 297.3883  1.00268474 36485
